IRIDIUM 159             
1 43578U 18061K   25049.29178764  .00000039  00000+0  67025-5 0  9993
2 43578  86.3916 258.8859 0001878  90.9228 269.2183 14.34217530344025
IRIDIUM 180             
1 43922U 19002A   25048.94244127  .00000081  00000+0  21927-4 0  9997
2 43922  86.4010 195.9409 0002134  98.0795 262.0643 14.34218111319626
IRIDIUM 176             
1 43923U 19002B   25048.88906644  .00002669  00000+0  41917-3 0  9994
2 43923  86.6137 195.9652 0001651 119.3716 240.7666 14.72270816327991
IRIDIUM 168             
1 43924U 19002C   25049.14540390 -.00000026  00000+0 -16320-4 0  9995
2 43924  86.4018 195.9201 0001813  97.6135 262.5267 14.34217511319598
IRIDIUM 173             
1 43925U 19002D   25049.34201739  .00000605  00000+0  20910-3 0  9999
2 43925  86.4010 195.7465 0002139  96.5832 263.5607 14.34219373319615
IRIDIUM 169             
1 43926U 19002E   25049.00511850  .00000278  00000+0  84374-4 0  9992
2 43926  86.4205 227.4761 0003584 105.0760 255.0835 14.38588619320612
IRIDIUM 172             
1 43927U 19002F   25048.91706949  .00000266  00000+0  87865-4 0  9992
2 43927  86.4009 195.9302 0001907  98.6692 261.4719 14.34218817319552
IRIDIUM 175             
1 43928U 19002G   25048.88382977  .00002790  00000+0  43838-3 0  9995
2 43928  86.1557 155.3007 0003073  85.4886 274.6682 14.72250382327981
